GSAT0101 (GALILEO-PFM)  
1 37846U 11060A   24208.43782582 -.00000086  00000+0  00000+0 0  9994
2 37846  57.1299   0.4730 0002485  65.4588 294.5676  1.70475709 79478
GSAT0102 (GALILEO-FM2)  
1 37847U 11060B   24208.65541484 -.00000087  00000+0  00000+0 0  9994
2 37847  57.1301   0.4672 0001913  12.5112 166.6649  1.70475188 79356
GSAT0103 (GALILEO-FM3)  
1 38857U 12055A   24201.43809689 -.00000007  00000+0  00000+0 0  9996
2 38857  55.4194 120.7197 0004168 282.7042  77.2411  1.70473615 73110
GSAT0201 (GALILEO 5)    
1 40128U 14050A   24205.73886739 -.00000057  00000+0  00000+0 0  9990
2 40128  49.6216 301.5954 1612412 152.6893 216.8381  1.85519352 65451
GSAT0202 (GALILEO 6)    
1 40129U 14050B   24208.15297686 -.00000076  00000+0  00000+0 0  9998
2 40129  49.6355 300.5755 1611478 153.5858 215.6512  1.85519962 67661
GSAT0203 (GALILEO 7)    
1 40544U 15017A   24207.63042651 -.00000084  00000+0  00000+0 0  9994
2 40544  56.9242   0.4234 0002245 234.5996 125.3797  1.70475988 57411
GSAT0204 (GALILEO 8)    
1 40545U 15017B   24207.88471647 -.00000084  00000+0  00000+0 0  9993
2 40545  56.9311   0.4322 0002580 211.1353 148.8498  1.70475516 20467
GSAT0205 (GALILEO 9)    
1 40889U 15045A   24208.23945546  .00000054  00000+0  00000+0 0  9995
2 40889  55.2013 240.6904 0002797  10.2074 349.8612  1.70473625 55234
GSAT0206 (GALILEO 10)   
1 40890U 15045B   24208.46011055  .00000054  00000+0  00000+0 0  9991
2 40890  55.2003 240.6797 0002107  51.7317 308.3496  1.70473525 55262
GSAT0209 (GALILEO 12)   
1 41174U 15079A   24207.45677189 -.00000003  00000+0  00000+0 0  9993
2 41174  55.4404 120.2637 0004080 328.6006  31.3992  1.70473735 52987
GSAT0208 (GALILEO 11)   
1 41175U 15079B   24208.84970231 -.00000012  00000+0  00000+0 0  9992
2 41175  55.4393 120.2231 0003857 325.4214  34.5759  1.70473754 53586
GSAT0211 (GALILEO 14)   
1 41549U 16030A   24207.21264561  .00000057  00000+0  00000+0 0  9995
2 41549  55.3492 240.7294 0002639 316.3590  43.6876  1.70473667 50873
GSAT0210 (GALILEO 13)   
1 41550U 16030B   24184.62718941  .00000039  00000+0  00000+0 0  9992
2 41550  55.3572 241.3529 0003113 263.9843  96.0701  1.70473946 50484
GSAT0207 (GALILEO 15)   
1 41859U 16069A   24208.92353250 -.00000013  00000+0  00000+0 0  9997
2 41859  55.1058 120.2151 0004389 312.1048  47.8799  1.70473719 47855
GSAT0212 (GALILEO 16)   
1 41860U 16069B   24208.19118698 -.00000008  00000+0  00000+0 0  9997
2 41860  55.1031 120.2318 0003609 337.1580  22.8495  1.70473973 47875
GSAT0213 (GALILEO 17)   
1 41861U 16069C   24207.38661368 -.00000003  00000+0  00000+0 0  9990
2 41861  55.1053 120.2609 0003560 293.2929  66.6935  1.70474206 47727
GSAT0214 (GALILEO 18)   
1 41862U 16069D   24208.11825618 -.00000007  00000+0  00000+0 0  9997
2 41862  55.1064 120.2343 0006039 287.3964  72.5614  1.70473958 47860
GSAT0215 (GALILEO 19)   
1 43055U 17079A   24208.60784944  .00000055  00000+0  00000+0 0  9997
2 43055  55.3261 240.5123 0003466 258.2841 101.7389  1.70474357 41212
GSAT0216 (GALILEO 20)   
1 43056U 17079B   24208.89951952  .00000055  00000+0  00000+0 0  9994
2 43056  55.3261 240.5041 0004817 269.2857  90.7206  1.70474455 41205
GSAT0217 (GALILEO 21)   
1 43057U 17079C   24207.94683897  .00000055  00000+0  00000+0 0  9990
2 43057  55.3242 240.5286 0004644 281.3436  78.6679  1.70473976 41208
GSAT0218 (GALILEO 22)   
1 43058U 17079D   24208.75347675  .00000055  00000+0  00000+0 0  9992
2 43058  55.3244 240.5044 0004509 266.8286  93.1814  1.70474346 41210
GSAT0221 (GALILEO 25)   
1 43564U 18060A   24208.06785444 -.00000084  00000+0  00000+0 0  9992
2 43564  57.3049   0.4219 0002114 272.8205  87.1555  1.70475903 37380
GSAT0222 (GALILEO 26)   
1 43565U 18060B   24207.69985030 -.00000083  00000+0  00000+0 0  9993
2 43565  57.3080   0.4336 0002518 213.3985 146.5857  1.70475598 37429
GSAT0219 (GALILEO 23)   
1 43566U 18060C   24209.09483738 -.00000088  00000+0  00000+0 0  9993
2 43566  57.3079   0.3981 0001288 283.9934  75.9928  1.70475904 37428
GSAT0220 (GALILEO 24)   
1 43567U 18060D   24206.96913728 -.00000081  00000+0  00000+0 0  9997
2 43567  57.3078   0.4555 0001501 272.8915  87.0911  1.70475510 37373
GSAT0223 (GALILEO 27)   
1 49809U 21116A   24207.98869062 -.00000084  00000+0  00000+0 0  9995
2 49809  57.2983   0.3220 0002670 171.0736 185.0838  1.70475646 16395
GSAT0224 (GALILEO 28)   
1 49810U 21116B   24207.78109488 -.00000083  00000+0  00000+0 0  9993
2 49810  57.2990   0.3260 0002412 158.3881 182.8726  1.70475646 16416
GSAT0225 (GALILEO 29)   
1 59598U 24079A   24206.27985715 -.00000001  00000+0  00000+0 0  9996
2 59598  54.7208 120.4729 0001983 226.8348 263.7852  1.70473964  1503
GSAT0227 (GALILEO 30)   
1 59600U 24079C   24196.27656079 -.00000001  00000+0  00000+0 0  9996
2 59600  54.7313 120.7617 0190564  98.3279 263.8278  1.70507836  1376
